{"type": "FeatureCollection", "features": [ {"type": "Feature", "properties": {"norad_id": 34833, "name": "IRIDIUM 33 DEB", "group": "iridium-33-debris", "lat": -13.088261580468952, "lon": 45.1949604566994, "alt_km": 718.6246053407567, "timestamp": "2025-12-24T05:51:19.994408+00:00", "meta": {"OBJECT_NAME": "IRIDIUM 33 DEB", "OBJECT_ID": "1997-051MH", "EPOCH": "2025-12-23T09:00:57.983904", "MEAN_MOTION": 14.52434607, "ECCENTRICITY": 0.00213257, "INCLINATION": 86.3921, "RA_OF_ASC_NODE": 46.4097, "ARG_OF_PERICENTER": 65.9688, "MEAN_ANOMALY": 63.9941, "EPHEMERIS_TYPE": 0, "CLASSIFICATION_TYPE": "U", "NORAD_CAT_ID": 34833, "ELEMENT_SET_NO": 999, "REV_AT_EPOCH": 87869, "BSTAR": 0.00067453879, "MEAN_MOTION_DOT": 2.777e-05, "MEAN_MOTION_DDOT": 0}, "tle": {"line1": "1 34833U 97051MH  25357.37567111  .00002777  00000+0  67454-3 0  9997", "line2": "2 34833  86.3921  46.4097 0021325  65.9688  63.9941 14.52434607878693"}}, "geometry": {"type": "Point", "coordinates": [45.1949604566994, -13.088261580468952]}}, {"type": "Feature", "properties": {"norad_id": 34870, "name": "IRIDIUM 33 DEB", "group": "iridium-33-debris", "lat": -57.16902525401017, "lon": 134.55241010103754, "alt_km": 648.2806431349481, "timestamp": "2025-12-24T05:51:19.994418+00:00", "meta": {"OBJECT_NAME": "IRIDIUM 33 DEB", "OBJECT_ID": "1997-051MQ", "EPOCH": "2025-12-22T20:23:31.246080", "MEAN_MOTION": 14.76611259, "ECCENTRICITY": 0.00177501, "INCLINATION": 86.3115, "RA_OF_ASC_NODE": 309.4529, "ARG_OF_PERICENTER": 146.7714, "MEAN_ANOMALY": 243.206, "EPHEMERIS_TYPE": 0, "CLASSIFICATION_TYPE": "U", "NORAD_CAT_ID": 34870, "ELEMENT_SET_NO": 999, "REV_AT_EPOCH": 89060, "BSTAR": 0.0014600541, "MEAN_MOTION_DOT": 0.0001025, "MEAN_MOTION_DDOT": 0}, "tle": {"line1": "1 34870U 97051MQ  25356.84966720  .00010250  00000+0  14601-2 0  9998", "line2": "2 34870  86.3115 309.4529 0017750 146.7714 243.2060 14.76611259890602"}}, "geometry": {"type": "Point", "coordinates": [134.55241010103754, -57.16902525401017]}}, {"type": "Feature", "properties": {"norad_id": 34896, "name": "IRIDIUM 33 DEB", "group": "iridium-33-debris", "lat": 15.865589202472702, "lon": -37.42993675686824, "alt_km": 690.1556814916148, "timestamp": "2025-12-24T05:51:19.994429+00:00", "meta": {"OBJECT_NAME": "IRIDIUM 33 DEB", "OBJECT_ID": "1997-051MY", "EPOCH": "2025-12-23T15:50:48.505632", "MEAN_MOTION": 14.66376054, "ECCENTRICITY": 0.00256655, "INCLINATION": 86.33, "RA_OF_ASC_NODE": 321.7865, "ARG_OF_PERICENTER": 175.3645, "MEAN_ANOMALY": 1.4458, "EPHEMERIS_TYPE": 0, "CLASSIFICATION_TYPE": "U", "NORAD_CAT_ID": 34896, "ELEMENT_SET_NO": 999, "REV_AT_EPOCH": 87779, "BSTAR": 0.0009097586, "MEAN_MOTION_DOT": 5.073e-05, "MEAN_MOTION_DDOT": 0}, "tle": {"line1": "1 34896U 97051MY  25357.66028363  .00005073  00000+0  90976-3 0  9996", "line2": "2 34896  86.3300 321.7865 0025665 175.3645   1.4458 14.66376054877791"}}, "geometry": {"type": "Point", "coordinates": [-37.42993675686824, 15.865589202472702]}}, {"type": "Feature", "properties": {"norad_id": 34926, "name": "IRIDIUM 33 DEB", "group": "iridium-33-debris", "lat": -18.69228469720869, "lon": 1.62493851170423, "alt_km": 712.7763356078804, "timestamp": "2025-12-24T05:51:19.994439+00:00", "meta": {"OBJECT_NAME": "IRIDIUM 33 DEB", "OBJECT_ID": "1997-051NF", "EPOCH": "2025-12-22T01:22:31.159776", "MEAN_MOTION": 14.5480682, "ECCENTRICITY": 0.00744191, "INCLINATION": 86.1317, "RA_OF_ASC_NODE": 3.9511, "ARG_OF_PERICENTER": 260.4851, "MEAN_ANOMALY": 154.6666, "EPHEMERIS_TYPE": 0, "CLASSIFICATION_TYPE": "U", "NORAD_CAT_ID": 34926, "ELEMENT_SET_NO": 999, "REV_AT_EPOCH": 86592, "BSTAR": 0.0057923661, "MEAN_MOTION_DOT": 0.00025863, "MEAN_MOTION_DDOT": 0}, "tle": {"line1": "1 34926U 97051NF  25356.05730509  .00025863  00000+0  57924-2 0  9998", "line2": "2 34926  86.1317   3.9511 0074419 260.4851 154.6666 14.54806820865924"}}, "geometry": {"type": "Point", "coordinates": [1.62493851170423, -18.69228469720869]}}, {"type": "Feature", "properties": {"norad_id": 34985, "name": "IRIDIUM 33 DEB", "group": "iridium-33-debris", "lat": -56.81668066693345, "lon": 46.398325466343586, "alt_km": 767.1062690566005, "timestamp": "2025-12-24T05:51:19.994449+00:00", "meta": {"OBJECT_NAME": "IRIDIUM 33 DEB", "OBJECT_ID": "1997-051NR", "EPOCH": "2025-12-23T22:21:18.155232", "MEAN_MOTION": 14.42054167, "ECCENTRICITY": 0.00219683, "INCLINATION": 86.3684, "RA_OF_ASC_NODE": 52.1047, "ARG_OF_PERICENTER": 182.3312, "MEAN_ANOMALY": 299.1424, "EPHEMERIS_TYPE": 0, "CLASSIFICATION_TYPE": "U", "NORAD_CAT_ID": 34985, "ELEMENT_SET_NO": 999, "REV_AT_EPOCH": 87336, "BSTAR": 0.00064796479, "MEAN_MOTION_DOT": 2.152e-05, "MEAN_MOTION_DDOT": 0}, "tle": {"line1": "1 34985U 97051NR  25357.93146013  .00002152  00000+0  64796-3 0  9994", "line2": "2 34985  86.3684  52.1047 0021968 182.3312 299.1424 14.42054167873363"}}, "geometry": {"type": "Point", "coordinates": [46.398325466343586, -56.81668066693345]}}, {"type": "Feature", "properties": {"norad_id": 35051, "name": "IRIDIUM 33 DEB", "group": "iridium-33-debris", "lat": 72.73631907785224, "lon": 171.9089779346492, "alt_km": 721.5903666954819, "timestamp": "2025-12-24T05:51:19.994460+00:00", "meta": {"OBJECT_NAME": "IRIDIUM 33 DEB", "OBJECT_ID": "1997-051NX", "EPOCH": "2025-12-22T18:31:37.744896", "MEAN_MOTION": 14.47639956, "ECCENTRICITY": 0.0010302, "INCLINATION": 86.324, "RA_OF_ASC_NODE": 4.4893, "ARG_OF_PERICENTER": 63.2582, "MEAN_ANOMALY": 296.9674, "EPHEMERIS_TYPE": 0, "CLASSIFICATION_TYPE": "U", "NORAD_CAT_ID": 35051, "ELEMENT_SET_NO": 999, "REV_AT_EPOCH": 87141, "BSTAR": 0.00060447572, "MEAN_MOTION_DOT": 2.248e-05, "MEAN_MOTION_DDOT": 0}, "tle": {"line1": "1 35051U 97051NX  25356.77196464  .00002248  00000+0  60448-3 0  9991", "line2": "2 35051  86.3240   4.4893 0010302  63.2582 296.9674 14.47639956871417"}}, "geometry": {"type": "Point", "coordinates": [171.9089779346492, 72.73631907785224]}}, {"type": "Feature", "properties": {"norad_id": 35052, "name": "IRIDIUM 33 DEB", "group": "iridium-33-debris", "lat": -58.46321107979358, "lon": -158.45342808218288, "alt_km": 779.9998009403917, "timestamp": "2025-12-24T05:51:19.994469+00:00", "meta": {"OBJECT_NAME": "IRIDIUM 33 DEB", "OBJECT_ID": "1997-051NY", "EPOCH": "2025-12-23T18:44:00.353760", "MEAN_MOTION": 14.38504324, "ECCENTRICITY": 0.00131737, "INCLINATION": 86.33, "RA_OF_ASC_NODE": 15.7419, "ARG_OF_PERICENTER": 54.1122, "MEAN_ANOMALY": 306.1297, "EPHEMERIS_TYPE": 0, "CLASSIFICATION_TYPE": "U", "NORAD_CAT_ID": 35052, "ELEMENT_SET_NO": 999, "REV_AT_EPOCH": 87434, "BSTAR": 0.00016915934, "MEAN_MOTION_DOT": 5.37e-06, "MEAN_MOTION_DDOT": 0}, "tle": {"line1": "1 35052U 97051NY  25357.78055965  .00000537  00000+0  16916-3 0  9994", "line2": "2 35052  86.3300  15.7419 0013173  54.1122 306.1297 14.38504324874342"}}, "geometry": {"type": "Point", "coordinates": [-158.45342808218288, -58.46321107979358]}}, {"type": "Feature", "properties": {"norad_id": 35080, "name": "IRIDIUM 33 DEB", "group": "iridium-33-debris", "lat": -67.39861591793047, "lon": -123.96054873321269, "alt_km": 625.871241664956, "timestamp": "2025-12-24T05:51:19.994480+00:00", "meta": {"OBJECT_NAME": "IRIDIUM 33 DEB", "OBJECT_ID": "1997-051PF", "EPOCH": "2025-12-23T20:40:34.434624", "MEAN_MOTION": 14.87254484, "ECCENTRICITY": 0.00583485, "INCLINATION": 86.2085, "RA_OF_ASC_NODE": 47.0561, "ARG_OF_PERICENTER": 141.3526, "MEAN_ANOMALY": 219.1898, "EPHEMERIS_TYPE": 0, "CLASSIFICATION_TYPE": "U", "NORAD_CAT_ID": 35080, "ELEMENT_SET_NO": 999, "REV_AT_EPOCH": 69853, "BSTAR": 0.0059707931, "MEAN_MOTION_DOT": 0.00055878, "MEAN_MOTION_DDOT": 0}, "tle": {"line1": "1 35080U 97051PF  25357.86150966  .00055878  00000+0  59708-2 0  9994", "line2": "2 35080  86.2085  47.0561 0058348 141.3526 219.1898 14.87254484698536"}}, "geometry": {"type": "Point", "coordinates": [-123.96054873321269, -67.39861591793047]}}, {"type": "Feature", "properties": {"norad_id": 35297, "name": "IRIDIUM 33 DEB", "group": "iridium-33-debris", "lat": 61.486557451916596, "lon": 64.53037815656135, "alt_km": 726.0750631102455, "timestamp": "2025-12-24T05:51:19.994490+00:00", "meta": {"OBJECT_NAME": "IRIDIUM 33 DEB", "OBJECT_ID": "1997-051PM", "EPOCH": "2025-12-22T21:59:54.464640", "MEAN_MOTION": 14.45198443, "ECCENTRICITY": 0.0018277, "INCLINATION": 86.3852, "RA_OF_ASC_NODE": 58.4147, "ARG_OF_PERICENTER": 110.0569, "MEAN_ANOMALY": 250.2602, "EPHEMERIS_TYPE": 0, "CLASSIFICATION_TYPE": "U", "NORAD_CAT_ID": 35297, "ELEMENT_SET_NO": 999, "REV_AT_EPOCH": 70573, "BSTAR": 0.00060275, "MEAN_MOTION_DOT": 2.134e-05, "MEAN_MOTION_DDOT": 0}, "tle": {"line1": "1 35297U 97051PM  25356.91660260  .00002134  00000+0  60275-3 0  9991", "line2": "2 35297  86.3852  58.4147 0018277 110.0569 250.2602 14.45198443705738"}}, "geometry": {"type": "Point", "coordinates": [64.53037815656135, 61.486557451916596]}}, {"type": "Feature", "properties": {"norad_id": 35299, "name": "IRIDIUM 33 DEB", "group": "iridium-33-debris", "lat": 2.0227218784136274, "lon": -151.95400437695193, "alt_km": 773.9517278818857, "timestamp": "2025-12-24T05:51:19.994500+00:00", "meta": {"OBJECT_NAME": "IRIDIUM 33 DEB", "OBJECT_ID": "1997-051PP", "EPOCH": "2025-12-23T02:37:39.072000", "MEAN_MOTION": 14.40910271, "ECCENTRICITY": 0.00585818, "INCLINATION": 86.2874, "RA_OF_ASC_NODE": 28.6713, "ARG_OF_PERICENTER": 69.2338, "MEAN_ANOMALY": 346.7507, "EPHEMERIS_TYPE": 0, "CLASSIFICATION_TYPE": "U", "NORAD_CAT_ID": 35299, "ELEMENT_SET_NO": 999, "REV_AT_EPOCH": 86480, "BSTAR": 0.00082085889, "MEAN_MOTION_DOT": 2.707e-05, "MEAN_MOTION_DDOT": 0}, "tle": {"line1": "1 35299U 97051PP  25357.10948000  .00002707  00000+0  82086-3 0  9996", "line2": "2 35299  86.2874  28.6713 0058581  69.2338 346.7507 14.40910271864807"}}, "geometry": {"type": "Point", "coordinates": [-151.95400437695193, 2.0227218784136274]}}]}